[{"OBJECT_NAME":"ONEWEB-0561","OBJECT_ID":"2023-068A","EPOCH":"2026-01-31T07:19:32.750688","MEAN_MOTION":13.20771625,"ECCENTRICITY":0.00016521,"INCLINATION":87.9219,"RA_OF_ASC_NODE":301.7613,"ARG_OF_PERICENTER":62.6256,"MEAN_ANOMALY":297.5046,"EPHEMERIS_TYPE":0,"CLASSIFICATION_TYPE":"U","NORAD_CAT_ID":56710,"ELEMENT_SET_NO":999,"REV_AT_EPOCH":13143,"BSTAR":-0.00028579157,"MEAN_MOTION_DOT":-1.03e-6,"MEAN_MOTION_DDOT":0},{"OBJECT_NAME":"ONEWEB-0668","OBJECT_ID":"2023-068B","EPOCH":"2026-01-31T04:16:54.380352","MEAN_MOTION":13.16593883,"ECCENTRICITY":0.00019799,"INCLINATION":87.9025,"RA_OF_ASC_NODE":256.0364,"ARG_OF_PERICENTER":94.3548,"MEAN_ANOMALY":265.7809,"EPHEMERIS_TYPE":0,"CLASSIFICATION_TYPE":"U","NORAD_CAT_ID":56711,"ELEMENT_SET_NO":999,"REV_AT_EPOCH":13375,"BSTAR":0.00013079633,"MEAN_MOTION_DOT":6.3e-7,"MEAN_MOTION_DDOT":0},{"OBJECT_NAME":"ONEWEB-0676","OBJECT_ID":"2023-068C","EPOCH":"2026-01-31T02:38:51.861408","MEAN_MOTION":13.16595237,"ECCENTRICITY":0.00016439,"INCLINATION":87.9012,"RA_OF_ASC_NODE":256.0664,"ARG_OF_PERICENTER":72.9172,"MEAN_ANOMALY":287.2139,"EPHEMERIS_TYPE":0,"CLASSIFICATION_TYPE":"U","NORAD_CAT_ID":56712,"ELEMENT_SET_NO":999,"REV_AT_EPOCH":13366,"BSTAR":0.00020706446,"MEAN_MOTION_DOT":9.2e-7,"MEAN_MOTION_DDOT":0},{"OBJECT_NAME":"ONEWEB-0677","OBJECT_ID":"2023-068D","EPOCH":"2026-01-31T07:03:38.083392","MEAN_MOTION":13.20774604,"ECCENTRICITY":0.00018259,"INCLINATION":87.9229,"RA_OF_ASC_NODE":301.753,"ARG_OF_PERICENTER":75.7251,"MEAN_ANOMALY":284.4085,"EPHEMERIS_TYPE":0,"CLASSIFICATION_TYPE":"U","NORAD_CAT_ID":56713,"ELEMENT_SET_NO":999,"REV_AT_EPOCH":13173,"BSTAR":0.00013377751,"MEAN_MOTION_DOT":6.7e-7,"MEAN_MOTION_DDOT":0},{"OBJECT_NAME":"ONEWEB-0678","OBJECT_ID":"2023-068E","EPOCH":"2026-01-31T06:09:47.012832","MEAN_MOTION":13.15548213,"ECCENTRICITY":0.00012705,"INCLINATION":87.9,"RA_OF_ASC_NODE":286.5228,"ARG_OF_PERICENTER":71.3337,"MEAN_ANOMALY":288.7931,"EPHEMERIS_TYPE":0,"CLASSIFICATION_TYPE":"U","NORAD_CAT_ID":56714,"ELEMENT_SET_NO":999,"REV_AT_EPOCH":13128,"BSTAR":-0.00018136376,"MEAN_MOTION_DOT":-5.5e-7,"MEAN_MOTION_DDOT":0},{"OBJECT_NAME":"ONEWEB-0679","OBJECT_ID":"2023-068F","EPOCH":"2026-01-31T03:29:02.305248","MEAN_MOTION":13.16593923,"ECCENTRICITY":0.0002043,"INCLINATION":87.9015,"RA_OF_ASC_NODE":256.0422,"ARG_OF_PERICENTER":83.0936,"MEAN_ANOMALY":277.0427,"EPHEMERIS_TYPE":0,"CLASSIFICATION_TYPE":"U","NORAD_CAT_ID":56715,"ELEMENT_SET_NO":999,"REV_AT_EPOCH":13369,"BSTAR":0.00032868073,"MEAN_MOTION_DOT":1.39e-6,"MEAN_MOTION_DDOT":0},{"OBJECT_NAME":"ONEWEB-0680","OBJECT_ID":"2023-068G","EPOCH":"2026-01-31T03:53:07.321056","MEAN_MOTION":13.21827613,"ECCENTRICITY":0.00021335,"INCLINATION":87.9207,"RA_OF_ASC_NODE":271.2964,"ARG_OF_PERICENTER":87.776,"MEAN_ANOMALY":272.3618,"EPHEMERIS_TYPE":0,"CLASSIFICATION_TYPE":"U","NORAD_CAT_ID":56716,"ELEMENT_SET_NO":999,"REV_AT_EPOCH":13299,"BSTAR":-0.0013724287,"MEAN_MOTION_DOT":-5.54e-6,"MEAN_MOTION_DDOT":0},{"OBJECT_NAME":"ONEWEB-0681","OBJECT_ID":"2023-068H","EPOCH":"2026-01-31T05:12:29.454048","MEAN_MOTION":13.21826201,"ECCENTRICITY":0.0002032,"INCLINATION":87.9199,"RA_OF_ASC_NODE":271.2972,"ARG_OF_PERICENTER":51.56,"MEAN_ANOMALY":308.5717,"EPHEMERIS_TYPE":0,"CLASSIFICATION_TYPE":"U","NORAD_CAT_ID":56717,"ELEMENT_SET_NO":999,"REV_AT_EPOCH":13299,"BSTAR":0.00012475464,"MEAN_MOTION_DOT":6.5e-7,"MEAN_MOTION_DDOT":0},{"OBJECT_NAME":"ONEWEB-0682","OBJECT_ID":"2023-068J","EPOCH":"2026-01-31T03:08:22.913664","MEAN_MOTION":13.15548369,"ECCENTRICITY":0.00020307,"INCLINATION":87.899,"RA_OF_ASC_NODE":286.5578,"ARG_OF_PERICENTER":83.3838,"MEAN_ANOMALY":276.7523,"EPHEMERIS_TYPE":0,"CLASSIFICATION_TYPE":"U","NORAD_CAT_ID":56718,"ELEMENT_SET_NO":999,"REV_AT_EPOCH":13143,"BSTAR":0.00026023895,"MEAN_MOTION_DOT":1.11e-6,"MEAN_MOTION_DDOT":0},{"OBJECT_NAME":"ONEWEB-0683","OBJECT_ID":"2023-068K","EPOCH":"2026-01-31T05:28:43.259808","MEAN_MOTION":13.1554815,"ECCENTRICITY":0.00017556,"INCLINATION":87.9,"RA_OF_ASC_NODE":286.5277,"ARG_OF_PERICENTER":83.5797,"MEAN_ANOMALY":276.5534,"EPHEMERIS_TYPE":0,"CLASSIFICATION_TYPE":"U","NORAD_CAT_ID":56719,"ELEMENT_SET_NO":999,"REV_AT_EPOCH":13141,"BSTAR":0.00061873165,"MEAN_MOTION_DOT":2.46e-6,"MEAN_MOTION_DDOT":0},{"OBJECT_NAME":"ONEWEB-0684","OBJECT_ID":"2023-068L","EPOCH":"2026-01-31T05:40:07.254048","MEAN_MOTION":13.15548707,"ECCENTRICITY":5.191e-5,"INCLINATION":87.8996,"RA_OF_ASC_NODE":286.5189,"ARG_OF_PERICENTER":142.6845,"MEAN_ANOMALY":217.4322,"EPHEMERIS_TYPE":0,"CLASSIFICATION_TYPE":"U","NORAD_CAT_ID":56720,"ELEMENT_SET_NO":999,"REV_AT_EPOCH":13124,"BSTAR":0.00043492766,"MEAN_MOTION_DOT":1.77e-6,"MEAN_MOTION_DDOT":0},{"OBJECT_NAME":"ONEWEB-0686","OBJECT_ID":"2023-068M","EPOCH":"2026-01-31T06:10:47.714880","MEAN_MOTION":13.16598545,"ECCENTRICITY":0.00015533,"INCLINATION":87.9003,"RA_OF_ASC_NODE":256.0648,"ARG_OF_PERICENTER":98.0686,"MEAN_ANOMALY":262.0621,"EPHEMERIS_TYPE":0,"CLASSIFICATION_TYPE":"U","NORAD_CAT_ID":56721,"ELEMENT_SET_NO":999,"REV_AT_EPOCH":13369,"BSTAR":6.0331056e-5,"MEAN_MOTION_DOT":3.6e-7,"MEAN_MOTION_DDOT":0},{"OBJECT_NAME":"ONEWEB-0694","OBJECT_ID":"2023-068N","EPOCH":"2026-01-31T02:41:08.763072","MEAN_MOTION":13.16595118,"ECCENTRICITY":0.00018998,"INCLINATION":87.9027,"RA_OF_ASC_NODE":256.0323,"ARG_OF_PERICENTER":92.4753,"MEAN_ANOMALY":267.6595,"EPHEMERIS_TYPE":0,"CLASSIFICATION_TYPE":"U","NORAD_CAT_ID":56722,"ELEMENT_SET_NO":999,"REV_AT_EPOCH":13373,"BSTAR":0.00023445921,"MEAN_MOTION_DOT":1.02e-6,"MEAN_MOTION_DDOT":0},{"OBJECT_NAME":"ONEWEB-0696","OBJECT_ID":"2023-068P","EPOCH":"2026-01-31T02:48:58.862016","MEAN_MOTION":13.15549071,"ECCENTRICITY":0.00010639,"INCLINATION":87.8993,"RA_OF_ASC_NODE":286.5915,"ARG_OF_PERICENTER":73.7785,"MEAN_ANOMALY":286.3463,"EPHEMERIS_TYPE":0,"CLASSIFICATION_TYPE":"U","NORAD_CAT_ID":56723,"ELEMENT_SET_NO":999,"REV_AT_EPOCH":13134,"BSTAR":-8.1581615e-5,"MEAN_MOTION_DOT":-1.8e-7,"MEAN_MOTION_DDOT":0},{"OBJECT_NAME":"ONEWEB-0703","OBJECT_ID":"2023-068Q","EPOCH":"2026-01-31T03:02:41.542944","MEAN_MOTION":13.15548725,"ECCENTRICITY":0.00010469,"INCLINATION":87.8992,"RA_OF_ASC_NODE":286.5705,"ARG_OF_PERICENTER":37.1999,"MEAN_ANOMALY":322.9203,"EPHEMERIS_TYPE":0,"CLASSIFICATION_TYPE":"U","NORAD_CAT_ID":56724,"ELEMENT_SET_NO":999,"REV_AT_EPOCH":13123,"BSTAR":-2.5632418e-5,"MEAN_MOTION_DOT":3.0e-8,"MEAN_MOTION_DDOT":0},{"OBJECT_NAME":"ONEWEB-0721","OBJECT_ID":"2023-068R","EPOCH":"2026-01-31T06:31:36.168096","MEAN_MOTION":13.22458843,"ECCENTRICITY":0.00017008,"INCLINATION":86.6819,"RA_OF_ASC_NODE":129.2171,"ARG_OF_PERICENTER":106.8599,"MEAN_ANOMALY":253.2721,"EPHEMERIS_TYPE":0,"CLASSIFICATION_TYPE":"U","NORAD_CAT_ID":56725,"ELEMENT_SET_NO":999,"REV_AT_EPOCH":13984,"BSTAR":-1.330865e-6,"MEAN_MOTION_DOT":1.4e-7,"MEAN_MOTION_DDOT":0},{"OBJECT_NAME":"ONEWEB-0015","OBJECT_ID":"2024-188A","EPOCH":"2026-01-31T01:14:15.844992","MEAN_MOTION":13.114153,"ECCENTRICITY":0.00022812,"INCLINATION":87.8811,"RA_OF_ASC_NODE":48.3877,"ARG_OF_PERICENTER":80.5917,"MEAN_ANOMALY":279.5469,"EPHEMERIS_TYPE":0,"CLASSIFICATION_TYPE":"U","NORAD_CAT_ID":61594,"ELEMENT_SET_NO":999,"REV_AT_EPOCH":6648,"BSTAR":0.00015596986,"MEAN_MOTION_DOT":6.8e-7,"MEAN_MOTION_DDOT":0}]
