ONEWEB-0561             
1 56710U 23068A   26031.30524017 -.00000103  00000+0 -28579-3 0  9991
2 56710  87.9219 301.7613 0001652  62.6256 297.5046 13.20771625131438
ONEWEB-0668             
1 56711U 23068B   26031.17840718  .00000063  00000+0  13080-3 0  9990
2 56711  87.9025 256.0364 0001979  94.3548 265.7809 13.16593883133751
ONEWEB-0676             
1 56712U 23068C   26031.11032247  .00000092  00000+0  20706-3 0  9990
2 56712  87.9012 256.0664 0001643  72.9172 287.2139 13.16595237133664
ONEWEB-0677             
1 56713U 23068D   26031.29419078  .00000067  00000+0  13378-3 0  9990
2 56713  87.9229 301.7530 0001825  75.7251 284.4085 13.20774604131733
ONEWEB-0678             
1 56714U 23068E   26031.25679413 -.00000055  00000+0 -18136-3 0  9994
2 56714  87.9000 286.5228 0001270  71.3337 288.7931 13.15548213131282
ONEWEB-0679             
1 56715U 23068F   26031.14516557  .00000139  00000+0  32868-3 0  9991
2 56715  87.9015 256.0422 0002043  83.0936 277.0427 13.16593923133698
ONEWEB-0680             
1 56716U 23068G   26031.16189029 -.00000554  00000+0 -13724-2 0  9996
2 56716  87.9207 271.2964 0002133  87.7760 272.3618 13.21827613132992
ONEWEB-0681             
1 56717U 23068H   26031.21700757  .00000065  00000+0  12475-3 0  9998
2 56717  87.9199 271.2972 0002032  51.5600 308.5717 13.21826201132996
ONEWEB-0682             
1 56718U 23068J   26031.13082076  .00000111  00000+0  26024-3 0  9994
2 56718  87.8990 286.5578 0002030  83.3838 276.7523 13.15548369131438
ONEWEB-0683             
1 56719U 23068K   26031.22827847  .00000246  00000+0  61873-3 0  9998
2 56719  87.9000 286.5277 0001755  83.5797 276.5534 13.15548150131413
ONEWEB-0684             
1 56720U 23068L   26031.23619507  .00000177  00000+0  43493-3 0  9994
2 56720  87.8996 286.5189 0000519 142.6845 217.4322 13.15548707131246
ONEWEB-0686             
1 56721U 23068M   26031.25749670  .00000036  00000+0  60331-4 0  9997
2 56721  87.9003 256.0648 0001553  98.0686 262.0621 13.16598545133690
ONEWEB-0694             
1 56722U 23068N   26031.11190698  .00000102  00000+0  23446-3 0  9992
2 56722  87.9027 256.0323 0001899  92.4753 267.6595 13.16595118133732
ONEWEB-0696             
1 56723U 23068P   26031.11734794 -.00000018  00000+0 -81582-4 0  9998
2 56723  87.8993 286.5915 0001063  73.7785 286.3463 13.15549071131342
ONEWEB-0703             
1 56724U 23068Q   26031.12686971  .00000003  00000+0 -25632-4 0  9990
2 56724  87.8992 286.5705 0001046  37.1999 322.9203 13.15548725131233
ONEWEB-0721             
1 56725U 23068R   26031.27194639  .00000014  00000+0 -13309-5 0  9993
2 56725  86.6819 129.2171 0001700 106.8599 253.2721 13.22458843139841
ONEWEB-0015             
1 61594U 24188A   26031.05157228  .00000068  00000+0  15597-3 0  9993
2 61594  87.8811  48.3877 0002281  80.5917 279.5469 13.11415300 66485
